MALLIGYONG-1            
1 58400U 23179A   24133.94565622  .00010497  00000+0  45570-3 0  9995
2 58400  97.4076  21.3320 0010151  37.3224 322.8716 15.22459831 26368
